CCSDS_OMM_VERS = 2.0
CREATION_DATE  = 
ORIGINATOR     = 

OBJECT_NAME    = ATLAS CENTAUR 2
OBJECT_ID      = 1963-047A
CENTER_NAME    = EARTH
REF_FRAME      = TEME
TIME_SYSTEM    = UTC
MEAN_ELEMENT_THEORY = SGP/SGP4

EPOCH          = 2026-01-02T20:45:08.301024
MEAN_MOTION    = 14.11859094
ECCENTRICITY   = .0548682
INCLINATION    = 30.3545
RA_OF_ASC_NODE = 203.4486
ARG_OF_PERICENTER = 220.2895
MEAN_ANOMALY   = 135.5787

EPHEMERIS_TYPE = 0
CLASSIFICATION_TYPE = U
NORAD_CAT_ID   = 694
ELEMENT_SET_NO = 999
REV_AT_EPOCH   = 12231
BSTAR          = .38349E-3
MEAN_MOTION_DOT = .3245E-4
MEAN_MOTION_DDOT = 0

CCSDS_OMM_VERS = 2.0
CREATION_DATE  = 
ORIGINATOR     = 

OBJECT_NAME    = THOR AGENA D R/B
OBJECT_ID      = 1964-002A
CENTER_NAME    = EARTH
REF_FRAME      = TEME
TIME_SYSTEM    = UTC
MEAN_ELEMENT_THEORY = SGP/SGP4

EPOCH          = 2026-01-02T12:22:33.805056
MEAN_MOTION    = 14.33974756
ECCENTRICITY   = .00338607
INCLINATION    = 99.1217
RA_OF_ASC_NODE = 12.2578
ARG_OF_PERICENTER = 91.1260
MEAN_ANOMALY   = 269.3803

EPHEMERIS_TYPE = 0
CLASSIFICATION_TYPE = U
NORAD_CAT_ID   = 733
ELEMENT_SET_NO = 999
REV_AT_EPOCH   = 22881
BSTAR          = .20540449E-3
MEAN_MOTION_DOT = .528E-5
MEAN_MOTION_DDOT = 0

CCSDS_OMM_VERS = 2.0
CREATION_DATE  = 
ORIGINATOR     = 

OBJECT_NAME    = SL-3 R/B
OBJECT_ID      = 1964-053B
CENTER_NAME    = EARTH
REF_FRAME      = TEME
TIME_SYSTEM    = UTC
MEAN_ELEMENT_THEORY = SGP/SGP4

EPOCH          = 2026-01-02T18:54:59.356800
MEAN_MOTION    = 14.61295654
ECCENTRICITY   = .0075698
INCLINATION    = 65.0763
RA_OF_ASC_NODE = 164.4336
ARG_OF_PERICENTER = 313.3631
MEAN_ANOMALY   = 46.1178

EPHEMERIS_TYPE = 0
CLASSIFICATION_TYPE = U
NORAD_CAT_ID   = 877
ELEMENT_SET_NO = 999
REV_AT_EPOCH   = 25716
BSTAR          = .14799E-3
MEAN_MOTION_DOT = .637E-5
MEAN_MOTION_DDOT = 0

CCSDS_OMM_VERS = 2.0
CREATION_DATE  = 
ORIGINATOR     = 

OBJECT_NAME    = SL-8 R/B
OBJECT_ID      = 1967-045B
CENTER_NAME    = EARTH
REF_FRAME      = TEME
TIME_SYSTEM    = UTC
MEAN_ELEMENT_THEORY = SGP/SGP4

EPOCH          = 2026-01-02T18:17:37.791744
MEAN_MOTION    = 14.45563115
ECCENTRICITY   = .0063231
INCLINATION    = 74.0118
RA_OF_ASC_NODE = 111.2087
ARG_OF_PERICENTER = 135.2236
MEAN_ANOMALY   = 225.4051

EPHEMERIS_TYPE = 0
CLASSIFICATION_TYPE = U
NORAD_CAT_ID   = 2802
ELEMENT_SET_NO = 999
REV_AT_EPOCH   = 7949
BSTAR          = .22896E-3
MEAN_MOTION_DOT = .801E-5
MEAN_MOTION_DDOT = 0

CCSDS_OMM_VERS = 2.0
CREATION_DATE  = 
ORIGINATOR     = 

OBJECT_NAME    = SL-8 R/B
OBJECT_ID      = 1968-040B
CENTER_NAME    = EARTH
REF_FRAME      = TEME
TIME_SYSTEM    = UTC
MEAN_ELEMENT_THEORY = SGP/SGP4

EPOCH          = 2026-01-02T17:54:19.355904
MEAN_MOTION    = 15.02707662
ECCENTRICITY   = .0026275
INCLINATION    = 74.0326
RA_OF_ASC_NODE = 88.3830
ARG_OF_PERICENTER = 286.9283
MEAN_ANOMALY   = 72.9025

EPHEMERIS_TYPE = 0
CLASSIFICATION_TYPE = U
NORAD_CAT_ID   = 3230
ELEMENT_SET_NO = 999
REV_AT_EPOCH   = 8010
BSTAR          = .44315E-3
MEAN_MOTION_DOT = .5924E-4
MEAN_MOTION_DDOT = 0

CCSDS_OMM_VERS = 2.0
CREATION_DATE  = 
ORIGINATOR     = 

OBJECT_NAME    = OAO 2
OBJECT_ID      = 1968-110A
CENTER_NAME    = EARTH
REF_FRAME      = TEME
TIME_SYSTEM    = UTC
MEAN_ELEMENT_THEORY = SGP/SGP4

EPOCH          = 2026-01-02T09:59:00.972672
MEAN_MOTION    = 14.47259928
ECCENTRICITY   = .00051883
INCLINATION    = 34.9935
RA_OF_ASC_NODE = 275.2338
ARG_OF_PERICENTER = 19.6006
MEAN_ANOMALY   = 340.4884

EPHEMERIS_TYPE = 0
CLASSIFICATION_TYPE = U
NORAD_CAT_ID   = 3597
ELEMENT_SET_NO = 999
REV_AT_EPOCH   = 949
BSTAR          = .15606386E-3
MEAN_MOTION_DOT = .559E-5
MEAN_MOTION_DDOT = 0

CCSDS_OMM_VERS = 2.0
CREATION_DATE  = 
ORIGINATOR     = 

OBJECT_NAME    = ISIS 1
OBJECT_ID      = 1969-009A
CENTER_NAME    = EARTH
REF_FRAME      = TEME
TIME_SYSTEM    = UTC
MEAN_ELEMENT_THEORY = SGP/SGP4

EPOCH          = 2026-01-02T07:55:21.000288
MEAN_MOTION    = 11.30368542
ECCENTRICITY   = .1707352
INCLINATION    = 88.4505
RA_OF_ASC_NODE = 162.5447
ARG_OF_PERICENTER = 223.0920
MEAN_ANOMALY   = 122.3360

EPHEMERIS_TYPE = 0
CLASSIFICATION_TYPE = U
NORAD_CAT_ID   = 3669
ELEMENT_SET_NO = 999
REV_AT_EPOCH   = 34103
BSTAR          = .43583E-3
MEAN_MOTION_DOT = .609E-5
MEAN_MOTION_DDOT = 0

CCSDS_OMM_VERS = 2.0
CREATION_DATE  = 
ORIGINATOR     = 

OBJECT_NAME    = SERT 2
OBJECT_ID      = 1970-009A
CENTER_NAME    = EARTH
REF_FRAME      = TEME
TIME_SYSTEM    = UTC
MEAN_ELEMENT_THEORY = SGP/SGP4

EPOCH          = 2026-01-02T20:50:13.827840
MEAN_MOTION    = 13.58721509
ECCENTRICITY   = .0004707
INCLINATION    = 99.2677
RA_OF_ASC_NODE = 309.5923
ARG_OF_PERICENTER = 342.8563
MEAN_ANOMALY   = 83.2292

EPHEMERIS_TYPE = 0
CLASSIFICATION_TYPE = U
NORAD_CAT_ID   = 4327
ELEMENT_SET_NO = 999
REV_AT_EPOCH   = 77095
BSTAR          = .16929E-3
MEAN_MOTION_DOT = .82E-6
MEAN_MOTION_DDOT = 0

CCSDS_OMM_VERS = 2.0
CREATION_DATE  = 
ORIGINATOR     = 

OBJECT_NAME    = SL-3 R/B
OBJECT_ID      = 1971-028B
CENTER_NAME    = EARTH
REF_FRAME      = TEME
TIME_SYSTEM    = UTC
MEAN_ELEMENT_THEORY = SGP/SGP4

EPOCH          = 2026-01-02T20:17:06.369504
MEAN_MOTION    = 15.55962467
ECCENTRICITY   = .0018593
INCLINATION    = 81.2386
RA_OF_ASC_NODE = 133.0271
ARG_OF_PERICENTER = 164.9972
MEAN_ANOMALY   = 195.1834

EPHEMERIS_TYPE = 0
CLASSIFICATION_TYPE = U
NORAD_CAT_ID   = 5118
ELEMENT_SET_NO = 999
REV_AT_EPOCH   = 97841
BSTAR          = .69843E-3
MEAN_MOTION_DOT = .49118E-3
MEAN_MOTION_DDOT = 0

CCSDS_OMM_VERS = 2.0
CREATION_DATE  = 
ORIGINATOR     = 

OBJECT_NAME    = ASTEX 1
OBJECT_ID      = 1971-089A
CENTER_NAME    = EARTH
REF_FRAME      = TEME
TIME_SYSTEM    = UTC
MEAN_ELEMENT_THEORY = SGP/SGP4

EPOCH          = 2026-01-02T19:30:00.376704
MEAN_MOTION    = 14.50674960
ECCENTRICITY   = .0013907
INCLINATION    = 92.7154
RA_OF_ASC_NODE = 130.4391
ARG_OF_PERICENTER = 312.6262
MEAN_ANOMALY   = 47.3771

EPHEMERIS_TYPE = 0
CLASSIFICATION_TYPE = U
NORAD_CAT_ID   = 5560
ELEMENT_SET_NO = 999
REV_AT_EPOCH   = 85275
BSTAR          = .31439E-3
MEAN_MOTION_DOT = .1234E-4
MEAN_MOTION_DDOT = 0

CCSDS_OMM_VERS = 2.0
CREATION_DATE  = 
ORIGINATOR     = 

OBJECT_NAME    = SL-8 R/B
OBJECT_ID      = 1971-119B
CENTER_NAME    = EARTH
REF_FRAME      = TEME
TIME_SYSTEM    = UTC
MEAN_ELEMENT_THEORY = SGP/SGP4

EPOCH          = 2026-01-02T19:05:11.619168
MEAN_MOTION    = 14.36275364
ECCENTRICITY   = .0557467
INCLINATION    = 73.8902
RA_OF_ASC_NODE = 298.7373
ARG_OF_PERICENTER = 278.7682
MEAN_ANOMALY   = 75.0754

EPHEMERIS_TYPE = 0
CLASSIFICATION_TYPE = U
NORAD_CAT_ID   = 5730
ELEMENT_SET_NO = 999
REV_AT_EPOCH   = 64602
BSTAR          = .71469E-3
MEAN_MOTION_DOT = .13796E-3
MEAN_MOTION_DDOT = 0

CCSDS_OMM_VERS = 2.0
CREATION_DATE  = 
ORIGINATOR     = 

OBJECT_NAME    = OAO 3 (COPERNICUS)
OBJECT_ID      = 1972-065A
CENTER_NAME    = EARTH
REF_FRAME      = TEME
TIME_SYSTEM    = UTC
MEAN_ELEMENT_THEORY = SGP/SGP4

EPOCH          = 2026-01-02T04:57:22.720608
MEAN_MOTION    = 14.59929495
ECCENTRICITY   = .00068545
INCLINATION    = 35.0070
RA_OF_ASC_NODE = 316.0776
ARG_OF_PERICENTER = 331.1485
MEAN_ANOMALY   = 154.5747

EPHEMERIS_TYPE = 0
CLASSIFICATION_TYPE = U
NORAD_CAT_ID   = 6153
ELEMENT_SET_NO = 999
REV_AT_EPOCH   = 83647
BSTAR          = .17191689E-3
MEAN_MOTION_DOT = .815E-5
MEAN_MOTION_DDOT = 0

